OSCAR 7 (AO-7)          
1 07530U 74089B   17355.85149668 -.00000035  00000-0  56807-4 0  9990
2 07530 101.6608 321.0273 0012029 320.1615  93.5432 12.53630325972373
UOSAT 2 (UO-11)         
1 14781U 84021B   17355.61423421  .00000098  00000-0  18235-4 0  9990
2 14781  97.6734  34.1692 0007332 312.2515  47.8076 14.82967067818120
LUSAT (LO-19)           
1 20442U 90005G   17354.79947288  .00000013  00000-0  20918-4 0  9998
2 20442  98.5938 289.5535 0011090 321.4984  38.5408 14.32881894458345
EYESAT-1 (AO-27)        
1 22825U 93061C   17355.36079539  .00000003  00000-0  18887-4 0  9990
2 22825  98.8392 323.4896 0009026 139.8092 220.3758 14.30017065264156
ITAMSAT (IO-26)         
1 22826U 93061D   17354.57929635 -.00000004  00000-0  15910-4 0  9990
2 22826  98.8332 322.7560 0009648 132.8897 227.3096 14.30347338263977
RADIO ROSTO (RS-15)     
1 23439U 94085A   17354.78571845 -.00000036  00000-0  17894-3 0  9994
2 23439  64.8177 277.3630 0162998 213.6873 173.8829 11.27566405946452
JAS-2 (FO-29)           
1 24278U 96046B   17355.61395147 -.00000028  00000-0  87960-5 0  9991
2 24278  98.5329 213.6654 0349797 211.4285 146.5527 13.53080391 54226
TECHSAT 1B (GO-32)      
1 25397U 98043D   17355.35811911 -.00000007  00000-0  16124-4 0  9996
2 25397  98.6316 293.9196 0001695 136.1196 224.0117 14.23636304 10424
ISS (ZARYA)             
1 25544U 98067A   17356.01322284  .00001201  00000-0  25321-4 0  9995
2 25544  51.6401 181.9786 0002733 271.0226 231.6340 15.54200472 90967
PCSAT (NO-44)           
1 26931U 01043C   17355.34730173 -.00000017  00000-0  25434-4 0  9999
2 26931  67.0517 328.2861 0005233 271.0404  89.0098 14.30487964847111
SAUDISAT 1C (SO-50)     
1 27607U 02058C   17355.83092500  .00000046  00000-0  27203-4 0  9993
2 27607  64.5559 272.1201 0043496  14.1290 346.1018 14.75404528806799
CUTE-1 (CO-55)          
1 27844U 03031E   17355.58516335  .00000058  00000-0  45823-4 0  9998
2 27844  98.6884   1.8550 0010137 159.9839 200.1738 14.22083616750955
CUBESAT XI-IV (CO-57)   
1 27848U 03031J   17355.00264826  .00000043  00000-0  39399-4 0  9999
2 27848  98.6975   1.6157 0009791 171.1531 188.9821 14.21691856750743
MOZHAYETS 4 (RS-22)     
1 27939U 03042A   17355.88200844  .00000100  00000-0  26479-4 0  9997
2 27939  97.9642 134.8929 0012759 356.8721 154.3784 14.66641673760820
CUBESAT XI-V (CO-58)    
1 28895U 05043F   17355.37913654  .00000164  00000-0  40424-4 0  9992
2 28895  97.8841 149.3068 0015529 271.5314  88.4110 14.63488382647867
CUTE-1.7+APD II (CO-65) 
1 32785U 08021C   17355.19191143  .00000281  00000-0  36235-4 0  9990
2 32785  97.5548  10.8099 0011615 268.5552  91.4335 14.88031175522708
DELFI-C3 (DO-64)        
1 32789U 08021G   17354.69406799  .00001846  00000-0  13204-3 0  9992
2 32789  97.5374  48.8386 0012752 180.1944 179.9280 15.05606300524921
SEEDS II (CO-66)        
1 32791U 08021J   17355.03148148  .00000389  00000-0  45319-4 0  9999
2 32791  97.5482  15.5732 0012056 249.2368 110.7559 14.90424003522970
YUBILEINY (RS-30)       
1 32953U 08025A   17355.81250701  .00000020  00000-0  72950-4 0  9991
2 32953  82.5026 122.9940 0018814 234.4106 125.5221 12.43080639434731
PRISM (HITOMI)          
1 33493U 09002B   17355.73369843  .00001447  00000-0  13436-3 0  9993
2 33493  98.1475 245.8506 0015071 176.4877 183.6457 14.96015342483815
KKS-1 (KISEKI)          
1 33499U 09002H   17355.75348168  .00000145  00000-0  29526-4 0  9990
2 33499  98.3449 166.8456 0010127 132.6485 227.5578 14.75275747479019
SWISSCUBE               
1 35932U 09051B   17355.39526229  .00000156  00000-0  46227-4 0  9993
2 35932  98.5201 137.5587 0008265  43.0270 317.1572 14.56101607437564
BEESAT                  
1 35933U 09051C   17354.33614293  .00000129  00000-0  40159-4 0  9994
2 35933  98.5238 137.9088 0006734  59.4026 300.7835 14.56211005437513
ITUPSAT 1               
1 35935U 09051E   17355.39028850  .00000127  00000-0  40214-4 0  9991
2 35935  98.5350 139.2403 0008920  49.8172 310.3804 14.55395865437463
XIWANG-1 (HOPE-1)       
1 36122U 09072B   17354.85672954 -.00000022  00000-0  54088-4 0  9992
2 36122 100.0866  12.7638 0007732 159.9599 200.1820 13.16342650385189
TISAT 1                 
1 36799U 10035E   17355.30887262  .00000592  00000-0  66438-4 0  9997
2 36799  98.0832 122.1180 0013578  74.8726 285.3993 14.90644206403652
JUGNU                   
1 37839U 11058B   17354.50235420  .00000299  00000-0  17545-4 0  9992
2 37839  19.9626  40.7458 0019202  76.9977  54.7392 14.12604503320070
SRMSAT                  
1 37841U 11058D   17354.62081545  .00000294  00000-0  16320-4 0  9990
2 37841  19.9723  85.5470 0011878 330.0292 169.8169 14.10594825319540
M-CUBED & EXP-1 PRIME   
1 37855U 11061F   17355.80353750  .00001653  00000-0  92919-4 0  9998
2 37855 101.7188 322.6021 0178009 247.0072 111.2275 15.03921499334988
HORYU 2                 
1 38340U 12025D   17355.60639064  .00000246  00000-0  44306-4 0  9996
2 38340  98.3752   6.1453 0012639  59.3838 300.8615 14.75469719300920
STRAND-1                
1 39090U 13009E   17354.61211886  .00000037  00000-0  28323-4 0  9999
2 39090  98.5347 198.1405 0010246 105.5691 254.6626 14.35002315252191
SOMP                    
1 39134U 13015E   17355.36314349  .00001612  00000-0  86359-4 0  9999
2 39134  64.8659 341.9090 0029810 234.6965 125.1373 15.18642856257890
BEESAT-3                
1 39135U 13015F   17355.75864687  .00001364  00000-0  79578-4 0  9997
2 39135  64.8692 351.7301 0031294 256.6622 103.1014 15.16251663257747
BEESAT-2                
1 39136U 13015G   17355.00733383  .00001484  00000-0  86838-4 0  9994
2 39136  64.8699 356.4637 0032558 256.7530 102.9963 15.15737964257586
CUBEBUG-1 (CAPITAN BETO)
1 39153U 13018D   17355.81119541  .00000277  00000-0  43323-4 0  9990
2 39153  97.9834  87.1044 0017634 157.0038 203.1967 14.80310725251357
ZACUBE-1 (TSHEPISOSAT)  
1 39417U 13066B   17354.86682102  .00000284  00000-0  42215-4 0  9995
2 39417  97.6078  27.8355 0059642  20.5406 339.8185 14.80844704220401
TRITON-1                
1 39427U 13066M   17355.62744204  .00000239  00000-0  45843-4 0  9993
2 39427  97.6361 358.4058 0115552 108.0675 253.3160 14.67583755218538
GOMX 1                  
1 39430U 13066Q   17355.75154242  .00000174  00000-0  40444-4 0  9998
2 39430  97.6788 340.6253 0151876 170.2129 190.2090 14.58992325217288
HUMSAT-D                
1 39433U 13066T   17355.15554168  .00000444  00000-0  49303-4 0  9999
2 39433  97.6300  52.5347 0029923 317.1982  42.6907 14.91692578221882
EAGLE 2                 
1 39436U 13066W   17355.77832980  .00053050  00000-0  85172-3 0  9995
2 39436  97.7121 112.7505 0006177 124.3827 235.8010 15.52859142225586
CUBEBUG-2 (LO-74)       
1 39440U 13066AA  17355.61654831  .00000295  00000-0  48101-4 0  9995
2 39440  97.6127  16.3092 0081731  52.8304 308.0334 14.75582626219736
FUNCUBE-1 (AO-73)       
1 39444U 13066AE  17355.09026267  .00000356  00000-0  50443-4 0  9997
2 39444  97.6092  29.3437 0058654  15.9142 344.3897 14.81604872219288
UWE-3                   
1 39446U 13066AG  17355.60483746  .00000273  00000-0  43036-4 0  9993
2 39446  97.6090  22.0754 0071109  35.8467 324.7486 14.78115901218888
SPROUT                  
1 39770U 14029E   17355.84594568  .00000659  00000-0  80469-4 0  9993
2 39770  97.8764  93.4646 0010586  74.4662 285.7734 14.86593669194018
UNISAT-6                
1 40012U 14033C   17354.85707416  .00000252  00000-0  45139-4 0  9991
2 40012  97.8315 232.4566 0059704  54.2662 306.4080 14.73738033188434
DUCHIFAT-1              
1 40021U 14033M   17355.19148494  .00000602  00000-0  68073-4 0  9995
2 40021  97.9170 268.5920 0014145  48.8196 311.4239 14.90142841190440
FUNCUBE-3 (EO-79)       
1 40025U 14033R   17355.22731544  .00000382  00000-0  46965-4 0  9998
2 40025  97.9087 265.9547 0013707  53.9778 306.2707 14.88598704190311
CHUBUSAT-1              
1 40300U 14070C   17355.78748124  .00000994  00000-0  47306-4 0  9997
2 40300  97.3827  72.1511 0020784 159.8174 350.7710 15.21302176173303
NUDT-PHONESAT           
1 40900U 15049B   17355.86716404  .00002452  00000-0  11505-3 0  9997
2 40900  97.4423   1.2602 0012155 292.8008  67.1943 15.20552749124960
ZDPS 2A                 
1 40901U 15049C   17355.76392173  .00001116  00000-0  60204-4 0  9997
2 40901  97.4583 359.9364 0012388 297.9500  62.0479 15.16749941124760
ZDPS 2B                 
1 40902U 15049D   17355.78049278  .00001051  00000-0  57203-4 0  9998
2 40902  97.4467 358.2786 0012416 294.6388  65.3551 15.16563427124751
XW-2A                   
1 40903U 15049E   17355.67533553  .00002245  00000-0  58691-4 0  9999
2 40903  97.4043  23.6316 0013186 315.7702  44.2489 15.39791235126487
KAITUO 1A               
1 40904U 15049F   17355.79956226  .00000805  00000-0  46794-4 0  9990
2 40904  97.4558 357.7569 0013394 296.8142 180.3181 15.14819076124642
2015-049G               
1 40905U 15049G   17355.81147978  .00000528  00000-0  32788-4 0  9990
2 40905  97.4545 356.1491 0014321 286.3993  73.5664 15.13804888124581
XW-2C                   
1 40906U 15049H   17355.85368363  .00000838  00000-0  48415-4 0  9996
2 40906  97.4572 357.6645 0013577 286.5935  73.3806 15.14936324124644
XW-2D                   
1 40907U 15049J   17355.82270257  .00000901  00000-0  51597-4 0  9994
2 40907  97.4543 357.3564 0012917 284.5903  75.3896 15.15068407124640
LILACSAT 2              
1 40908U 15049K   17355.82025882  .00000499  00000-0  31574-4 0  9992
2 40908  97.4650 356.9327 0014519 284.3336  75.6283 15.13359205124549
XW-2F                   
1 40910U 15049M   17355.77154429  .00001327  00000-0  72153-4 0  9998
2 40910  97.4555 358.3036 0013664 280.9978  78.9717 15.16136924124567
XW-2B                   
1 40911U 15049N   17355.83406235  .00000867  00000-0  49878-4 0  9997
2 40911  97.4583 357.8334 0012828 285.0650  74.9163 15.15019507124543
